IRIDIUM 63              
1 25286U 98021B   25081.80406300  .00001103  00000+0  36995-3 0  9999
2 25286  86.3951 118.3846 0002254  96.0248 264.1206 14.36436865411711
IRIDIUM 69              
1 25319U 98026A   25081.52552817  .00001419  00000+0  43727-3 0  9996
2 25319  86.3976 132.0501 0001464  21.2894 338.8366 14.40838475410583
IRIDIUM 71              
1 25320U 98026B   25081.54412262  .00001237  00000+0  37880-3 0  9990
2 25320  86.3962 126.7498 0003400  54.4753 305.6763 14.41043222411111
IRIDIUM 73              
1 25344U 98032C   25081.75958697  .00002315  00000+0  57423-3 0  9996
2 25344  86.4355  83.5294 0001794  83.1382 277.0027 14.51531765418329
IRIDIUM 82              
1 25467U 98051A   25081.22751272  .00059196  00000+0  19645-2 0  9997
2 25467  86.3724 152.3222 0092589 265.0653  94.0019 15.26886652410662
